CCSDS_OMM_VERS,COMMENT,CREATION_DATE,ORIGINATOR,OBJECT_NAME,OBJECT_ID,CENTER_NAME,REF_FRAME,TIME_SYSTEM,MEAN_ELEMENT_THEORY,EPOCH,MEAN_MOTION,ECCENTRICITY,INCLINATION,RA_OF_ASC_NODE,ARG_OF_PERICENTER,MEAN_ANOMALY,EPHEMERIS_TYPE,CLASSIFICATION_TYPE,NORAD_CAT_ID,ELEMENT_SET_NO,REV_AT_EPOCH,BSTAR,MEAN_MOTION_DOT,MEAN_MOTION_DDOT,SEMIMAJOR_AXIS,PERIOD,APOAPSIS,PERIAPSIS,OBJECT_TYPE,RCS_SIZE,COUNTRY_CODE,LAUNCH_DATE,SITE,DECAY_DATE,FILE,GP_ID,TLE_LINE0,TLE_LINE1,TLE_LINE2
"3.0","GENERATED VIA SPACE-TRACK.ORG API","2025-02-04T02:47:05","18 SPCS","ASTROCAST-0102","2021-006CD","EARTH","TEME","UTC","SGP4","2025-02-03T16:36:17.750304","16.22681451","0.00054610","97.2851","97.4411","281.4352","78.6325","0","U","47488","999","22401","0.00329080000000","0.07629829","0.0000023628000","6590.418","88.742","215.883","208.684","PAYLOAD","MEDIUM","SWTZ","2021-01-24","AFETR","2025-02-08","4630266","279889192","0 ASTROCAST-0102","1 47488U 21006CD  25034.69187211  .07629829  23628-5  32908-2 0  9992","2 47488  97.2851  97.4411 0005461 281.4352  78.6325 16.22681451224018"
"3.0","GENERATED VIA SPACE-TRACK.ORG API","2025-02-03T20:16:15","18 SPCS","STARLINK-1930","2020-074BC","EARTH","TEME","UTC","SGP4","2025-02-03T19:24:20.968128","16.34518778","0.00088190","53.0188","273.6791","259.7430","148.4387","0","U","46789","999","23677","0.00110280000000","0.08226544","0.0000121880000","6558.561","88.099","186.210","174.642","PAYLOAD","LARGE","US","2020-10-24","AFETR","2025-02-04","4630012","279863955","0 STARLINK-1930","1 46789U 20074BC  25034.80857602  .08226544  12188-4  11028-2 0  9996","2 46789  53.0188 273.6791 0008819 259.7430 148.4387 16.34518778236772"
"3.0","GENERATED VIA SPACE-TRACK.ORG API","2025-02-04T18:10:45","18 SPCS","FLOCK 1C 7","2014-033S","EARTH","TEME","UTC","SGP4","2025-02-03T20:20:33.478944","16.33289633","0.00059710","98.0271","54.3274","252.5631","107.5010","0","U","40026","999","57956","0.00189270000000","0.11312359","0.0000029344000","6561.851","88.166","187.634","179.798","PAYLOAD","SMALL","US","2014-06-19","OREN","2025-02-08","4631053","279962251","0 FLOCK 1C 7","1 40026U 14033S   25034.84760971  .11312359  29344-5  18927-2 0  9990","2 40026  98.0271  54.3274 0005971 252.5631 107.5010 16.33289633579562"
"3.0","GENERATED VIA SPACE-TRACK.ORG API","2025-02-04T10:56:18","18 SPCS","CZ-2D DEB","2010-027E","EARTH","TEME","UTC","SGP4","2025-02-04T01:37:29.633376","15.91888816","0.00294140","97.6826","156.7095","328.9448","31.0085","0","U","38300","999","77793","0.00619640000000","0.02042993","0.0024141000000","6675.134","90.459","316.634","277.365","DEBRIS","SMALL","PRC","2010-06-15","JSC","2025-02-11","4630809","279942429","0 CZ-2D DEB","1 38300U 10027E   25035.06770409  .02042993  24141-2  61964-2 0  9993","2 38300  97.6826 156.7095 0029414 328.9448  31.0085 15.91888816777930"
"3.0","GENERATED VIA SPACE-TRACK.ORG API","2025-02-04T10:06:30","18 SPCS","STARLINK-1829","2020-073BJ","EARTH","TEME","UTC","SGP4","2025-02-04T06:53:50.153856","16.43431170","0.00099000","53.0185","193.7295","155.1899","273.9531","0","U","46726","999","23805","0.00101240000000","0.27663725","0.0000123060000","6534.828","87.622","163.162","150.224","PAYLOAD","LARGE","US","2020-10-18","AFETR","2025-02-04","4630694","279939155","0 STARLINK-1829","1 46726U 20073BJ  25035.28738604  .27663725  12306-4  10124-2 0  9994","2 46726  53.0185 193.7295 0009900 155.1899 273.9531 16.43431170238059"
"3.0","GENERATED VIA SPACE-TRACK.ORG API","2025-02-04T11:06:17","18 SPCS","STARLINK-31175","2024-017H","EARTH","TEME","UTC","SGP4","2025-02-04T08:15:22.560768","16.46551955","0.00136310","53.0949","203.6623","95.4433","339.9787","0","U","58833","999","5978","0.00068900000000","0.38840704","0.0000125170000","6526.568","87.455","157.330","139.537","PAYLOAD","LARGE","US","2024-01-24","AFWTR","2025-02-04","4630856","279943513","0 STARLINK-31175","1 58833U 24017H   25035.34401112  .38840704  12517-4  68900-3 0  9992","2 58833  53.0949 203.6623 0013631  95.4433 339.9787 16.46551955 59785"
"3.0","GENERATED VIA SPACE-TRACK.ORG API","2025-02-04T14:36:17","18 SPCS","STARLINK-2365","2021-021AX","EARTH","TEME","UTC","SGP4","2025-02-04T12:30:50.804640","16.38020719","0.00059400","53.0294","217.8395","288.6466","166.4577","0","U","47905","999","21610","0.00101380000000","0.11048477","0.0000123390000","6549.210","87.911","174.965","167.185","PAYLOAD","LARGE","US","2021-03-14","AFETR","2025-02-04","4630957","279944412","0 STARLINK-2365","1 47905U 21021AX  25035.52142135  .11048477  12339-4  10138-2 0  9998","2 47905  53.0294 217.8395 0005940 288.6466 166.4577 16.38020719216106"
"3.0","GENERATED VIA SPACE-TRACK.ORG API","2025-02-05T03:46:28","18 SPCS","STARLINK-2223","2021-017BM","EARTH","TEME","UTC","SGP4","2025-02-04T20:30:25.954848","16.33297609","0.00057580","53.0309","164.9175","327.2930","175.4658","0","U","47781","999","21758","0.00108400000000","0.07053174","0.0000122430000","6561.830","88.165","187.473","179.916","PAYLOAD","LARGE","US","2021-03-04","AFETR","2025-02-05","4631384","279984686","0 STARLINK-2223","1 47781U 21017BM  25035.85446707  .07053174  12243-4  10840-2 0  9992","2 47781  53.0309 164.9175 0005758 327.2930 175.4658 16.33297609217588"
"3.0","GENERATED VIA SPACE-TRACK.ORG API","2025-02-04T21:26:16","18 SPCS","STARLINK-4301","2022-076M","EARTH","TEME","UTC","SGP4","2025-02-04T21:01:52.427136","16.47851716","0.00079520","53.1934","307.9691","218.4626","184.7832","0","U","52997","999","14514","0.00030925000000","0.19724944","0.0000124600000","6523.136","87.387","150.188","139.814","PAYLOAD","LARGE","US","2022-07-07","AFETR","2025-02-05","4631073","279977460","0 STARLINK-4301","1 52997U 22076M   25035.87630124  .19724944  12460-4  30925-3 0  9994","2 52997  53.1934 307.9691 0007952 218.4626 184.7832 16.47851716145140"
"3.0","GENERATED VIA SPACE-TRACK.ORG API","2025-02-04T23:16:21","18 SPCS","STARLINK-1594","2020-057Z","EARTH","TEME","UTC","SGP4","2025-02-04T21:53:35.200608","16.38561209","0.00066920","53.0190","226.3182","263.8600","246.7548","0","U","46140","999","24769","0.00100360000000","0.11679427","0.0000123110000","6547.770","87.882","174.016","165.253","PAYLOAD","LARGE","US","2020-08-18","AFETR","2025-02-05","4631378","279984680","0 STARLINK-1594","1 46140U 20057Z   25035.91221297  .11679427  12311-4  10036-2 0  9998","2 46140  53.0190 226.3182 0006692 263.8600 246.7548 16.38561209247692"
"3.0","GENERATED VIA SPACE-TRACK.ORG API","2025-02-05T17:51:38","18 SPCS","FREGAT DEB","2011-037FT","EARTH","TEME","UTC","SGP4","2025-02-05T02:20:29.830272","16.05603064","0.00786260","51.2887","56.7370","130.3766","230.4140","0","U","45962","999","20673","0.00704420000000","0.07982140","0.0000112570000","6637.070","89.686","311.119","206.750","DEBRIS","SMALL","CIS","2011-07-18","TTMTR","2025-02-08","4632154","280020637","0 FREGAT DEB","1 45962U 11037FT  25036.09756748  .07982140  11257-4  70442-2 0  9990","2 45962  51.2887  56.7370 0078626 130.3766 230.4140 16.05603064206735"
"3.0","GENERATED VIA SPACE-TRACK.ORG API","2025-02-05T05:26:29","18 SPCS","STARLINK-1782","2021-009A","EARTH","TEME","UTC","SGP4","2025-02-05T03:58:12.070272","16.38496757","0.00055780","53.0394","319.7485","205.2496","300.7018","0","U","47548","999","22213","0.00086910000000","0.10001168","0.0000122360000","6547.941","87.885","173.459","166.154","PAYLOAD","LARGE","US","2021-02-04","AFETR","2025-02-05","4631387","279984689","0 STARLINK-1782","1 47548U 21009A   25036.16541748  .10001168  12236-4  86910-3 0  9994","2 47548  53.0394 319.7485 0005578 205.2496 300.7018 16.38496757222139"
"3.0","GENERATED VIA SPACE-TRACK.ORG API","2025-02-05T17:51:38","18 SPCS","ATLAS 5 CENTAUR DEB","2018-079FN","EARTH","TEME","UTC","SGP4","2025-02-05T07:41:28.695264","1.51852726","0.49691290","10.0518","132.1462","114.0317","304.5508","0","U","49361","999","1907","0.00000000000000","-0.00000030","0.0000000000000","31973.250","948.287","41483.035","9707.194","DEBRIS","","US","2018-10-17","AFETR","","4632154","280023168","0 ATLAS 5 CENTAUR DEB","1 49361U 18079FN  25036.32047101 -.00000030  00000-0  00000-0 0  9996","2 49361  10.0518 132.1462 4969129 114.0317 304.5508  1.51852726 19075"
"3.0","GENERATED VIA SPACE-TRACK.ORG API","2025-02-05T17:51:38","18 SPCS","COSMOS 1408 DEB","1982-092ABM","EARTH","TEME","UTC","SGP4","2025-02-05T07:45:19.325376","16.12056533","0.00115080","82.4785","57.5911","311.1899","48.8392","0","U","50351","999","17739","0.00271540000000","0.02512737","0.0086963000000","6619.345","89.327","248.827","233.592","DEBRIS","SMALL","CIS","1982-09-16","PKMTR","2025-02-11","4632154","280023296","0 COSMOS 1408 DEB","1 50351U 82092ABM 25036.32314034  .02512737  86963-2  27154-2 0  9993","2 50351  82.4785  57.5911 0011508 311.1899  48.8392 16.12056533177398"
"3.0","GENERATED VIA SPACE-TRACK.ORG API","2025-02-05T15:36:16","18 SPCS","VOLGA R/B","2025-026D","EARTH","TEME","UTC","SGP4","2025-02-05T11:52:04.781856","14.93887108","0.00100970","81.9945","220.5351","276.0393","83.9657","0","U","62905","999","3","0.00656530000000","0.00070488","0.0000000000000","6963.966","96.393","592.863","578.800","ROCKET BODY","","","","","2025-02-05","4632146","280002537","0 VOLGA R/B","1 62905U 25026D   25036.49449979  .00070488  00000-0  65653-2 0  9992","2 62905  81.9945 220.5351 0010097 276.0393  83.9657 14.93887108    35"
"3.0","GENERATED VIA SPACE-TRACK.ORG API","2025-02-05T14:36:18","18 SPCS","STARLINK-2048","2021-027A","EARTH","TEME","UTC","SGP4","2025-02-05T12:08:17.175840","16.42156799","0.00032640","53.0249","41.8428","188.4210","260.9113","0","U","48092","999","21372","0.00079294000000","0.14274619","0.0000123670000","6538.208","87.690","162.207","157.939","PAYLOAD","LARGE","US","2021-04-07","AFETR","2025-02-05","4631945","279997177","0 STARLINK-2048","1 48092U 21027A   25036.50575435  .14274619  12367-4  79294-3 0  9996","2 48092  53.0249  41.8428 0003264 188.4210 260.9113 16.42156799213721"
